[{"OBJECT_NAME":"BASIL","OBJECT_ID":"2025-185E","EPOCH":"2026-03-09T17:13:07.241088","MEAN_MOTION":14.77353126,"ECCENTRICITY":0.00114241,"INCLINATION":97.9635,"RA_OF_ASC_NODE":153.1696,"ARG_OF_PERICENTER":56.4063,"MEAN_ANOMALY":303.8236,"EPHEMERIS_TYPE":0,"CLASSIFICATION_TYPE":"U","NORAD_CAT_ID":65301,"ELEMENT_SET_NO":999,"REV_AT_EPOCH":2914,"BSTAR":0.00086699365,"MEAN_MOTION_DOT":6.12e-5,"MEAN_MOTION_DDOT":0},{"OBJECT_NAME":"ELECTRON KICK STAGE R\/B","OBJECT_ID":"2025-056G","EPOCH":"2026-03-09T21:12:24.592608","MEAN_MOTION":14.88206296,"ECCENTRICITY":0.0041452,"INCLINATION":98.0089,"RA_OF_ASC_NODE":203.1135,"ARG_OF_PERICENTER":310.8262,"MEAN_ANOMALY":48.9362,"EPHEMERIS_TYPE":0,"CLASSIFICATION_TYPE":"U","NORAD_CAT_ID":63306,"ELEMENT_SET_NO":999,"REV_AT_EPOCH":5300,"BSTAR":0.00035441054,"MEAN_MOTION_DOT":3.262e-5,"MEAN_MOTION_DDOT":0}]
